AKEBONO (EXOS-D)        
1 19822U 89016A   14300.10300720  .00033090 -86225-7  78494-3 0   607
2 19822  75.0497 272.1595 2200133 116.6930   4.4694 11.05547061799095
HST                     
1 20580U 90037B   14300.47020833  .00005383  00000-0  34833-3 0  1444
2 20580  28.4704 247.2395 0002924 261.2753  40.2337 15.06020874144671
POLAR                   
1 23802U 96013A   14298.92831310  .00000066  00000-0  00000+0 0  6285
2 23802  79.1761 294.2864 7265721   4.1208 359.5110  1.29842112 89638
SWAS                    
1 25560U 98071A   14300.10463906  .00003125  00000-0  32263-3 0  6829
2 25560  69.9000 162.2041 0009659 216.1954 143.8548 14.91186965861678
ORSTED                  
1 25635U 99008B   14299.82546623  .00000926  00000-0  23015-3 0  2497
2 25635  96.4813  54.9738 0141804  82.3992  78.8979 14.47338749826702
CXO                     
1 25867U 99040B   14302.77065810  .00000078  00000-0  00000+0 0  1002
2 25867  77.0107 315.3583 7919828 272.4596 359.8904  0.37804265 12421
XMM-NEWTON              
1 25989U 99066A   14302.42686289  .00000321  00000-0  00000+0 0  7553
2 25989  65.6611  51.4264 7834786  93.5516   0.1460  0.50143240 16067
TERRA                   
1 25994U 99068A   14300.49689333  .00000784  00000-0  18392-3 0  7650
2 25994  98.2003  13.3250 0001289  94.1478 265.9880 14.57133590790338
CLUSTER II-FM6 (SALSA)  
1 26410U 00041A   14302.17752310  .00001088  00000-0  00000+0 0  2410
2 26410 133.4032 320.7218 6347816 131.6276   0.8873  0.44224532 13247
CLUSTER II-FM7 (SAMBA)  
1 26411U 00041B   14302.18016933  .00001088  00000-0  00000+0 0  2102
2 26411 133.4018 320.7178 6347621 131.6174   0.8877  0.44222262 13329
CLUSTER II-FM5 (RUMBA)  
1 26463U 00045A   14302.17975667  .00001109  00000-0  00000+0 0  1989
2 26463 136.2011 319.4372 6402062 133.2136   0.8950  0.44235975 13820
CLUSTER II-FM8 (TANGO)  
1 26464U 00045B   14299.92539182  .00001067  00000-0  00000+0 0  1147
2 26464 132.8178 322.6102 6804407 136.5540   0.9963  0.44264806 49153
ODIN                    
1 26702U 01007A   14299.46806886  .00006545  00000-0  49203-3 0  4116
2 26702  97.6485 310.5145 0013374  94.3235 265.9519 15.02834471746460
TIMED                   
1 26998U 01055B   14299.92622804  .00002393  00000-0  27351-3 0  9687
2 26998  74.0740  72.7460 0001786 321.6398  38.4655 14.86648494698107
RHESSI                  
1 27370U 02004A   14299.99571854  .00012579  00000-0  63656-3 0  5177
2 27370  38.0351 127.5574 0011870 180.1391 179.9373 15.16481120699093
INTEGRAL                
1 27540U 02048A   14297.81506738  .00001112  00000-0  00000+0 0  5409
2 27540  54.9098 230.3586 8523180 258.8432   0.5800  0.33287523 10839
CORIOLIS                
1 27640U 03001A   14300.04303462  .00000190  00000-0  11259-3 0  6171
2 27640  98.7553 306.8281 0014129 192.2811 231.7300 14.18754007611222
SORCE                   
1 27651U 03004A   14300.40390975  .00004643  00000-0  52863-3 0  5588
2 27651  39.9956 287.2882 0024829 308.8058  51.0513 14.86466851637187
MOST                    
1 27843U 03031D   14300.49549398  .00000209  00000-0  11783-3 0   726
2 27843  98.7177 306.3179 0008811 269.3316 253.4379 14.20415754587143
SCISAT 1                
1 27858U 03036A   14300.16039116  .00001341  00000-0  19778-3 0  3973
2 27858  73.9335 289.6584 0009448 258.9815 177.5154 14.76395629603468
SWIFT                   
1 28485U 04047A   14299.49049038  .00007781  00000-0  57941-3 0  8029
2 28485  20.5584  25.7735 0012131 318.6917  41.2599 14.99684004542922
SUZAKU (ASTRO-EII)      
1 28773U 05025A   14298.80218637  .00009497  00000-0  56647-3 0  3970
2 28773  31.3839  58.0634 0005604  48.8045  84.3456 15.09918803510949
FORMOSAT-3 FM6          
1 29047U 06011A   14300.15083167  .00000614  00000-0  26012-3 0  5125
2 29047  71.9815 353.7293 0051232  11.2903 348.9369 14.28094740447114
FORMOSAT-3 FM1          
1 29048U 06011B   14300.11180773  .00000817  00000-0  34161-3 0  5874
2 29048  71.9692 267.0089 0046220 325.6288 108.3440 14.28072968449597
FORMOSAT-3 FM5          
1 29049U 06011C   14300.46055139  .00000658  00000-0  27933-3 0  5175
2 29049  72.0218  66.3037 0035503   9.3291  51.4950 14.28085638445429
FORMOSAT-3 FM3          
1 29050U 06011D   14299.88705623  .00002985  00000-0  66144-3 0  8827
2 29050  72.0186  62.1455 0049252 107.2292 253.4259 14.57109025456010
FORMOSAT-3 FM4          
1 29051U 06011E   14300.47919293  .00000678  00000-0  28170-3 0  5805
2 29051  72.0073 331.9853 0070873 247.3496 112.0134 14.28097907448005
FORMOSAT-3 FM2          
1 29052U 06011F   14300.49267269  .00000656  00000-0  27734-3 0  6034
2 29052  72.0373  40.1057 0042091 335.3160 106.4730 14.28174877446325
CLOUDSAT                
1 29107U 06016A   14299.76308856  .00000920  00000-0  21432-3 0  8164
2 29107  98.2103 241.6289 0001299  84.2640 275.8707 14.57101316451994
CALIPSO                 
1 29108U 06016B   14299.76188212  .00001867  00000-0  42434-3 0  8365
2 29108  98.2100 241.1780 0001557  79.1939 280.9441 14.57113315451921
HINODE (SOLAR-B)        
1 29479U 06041A   14300.11108802  .00001185  00000-0  23489-3 0  5362
2 29479  98.1391 297.4391 0017340  14.8658 345.3050 14.64006994432288
SJ-6C                   
1 29505U 06046A   14300.41707905  .00001534  00000-0  15244-3 0  9316
2 29505  97.7776 293.0275 0004415  69.9269 290.2425 14.93143338435970
SJ-6D                   
1 29506U 06046B   14300.49252000  .00001175  00000-0  12083-3 0  8695
2 29506  97.7916 291.8887 0003771 112.8177  43.6776 14.92211896435762
AGILE                   
1 31135U 07013A   14300.35583107  .00012288  00000-0  48403-3 0   796
2 31135   2.4686  20.3580 0016077 188.5042 171.4739 15.21336936416145
AIM                     
1 31304U 07015A   14300.39352285  .00013044  00000-0  94635-3 0  4817
2 31304  97.8925  67.8152 0005999 162.1452 197.9985 15.04033716409523
FGRST (GLAST)           
1 33053U 08029A   14299.81302739  .00003698  00000-0  21043-3 0  6852
2 33053  25.5829  80.2911 0012756 300.8426  59.0854 15.08870854351367
IBEX                    
1 33401U 08051A   14305.55872538 -.00000824  00000-0  00000+0 0  1166
2 33401   4.8054 161.2297 4736132 336.1166   5.5773  0.10042927  2581
WISE                    
1 36119U 09071A   14300.06602222  .00008322  00000-0  36856-3 0  4020
2 36119  97.5125 310.2077 0004840 104.2209 255.9565 15.21889707269232
SDO                     
1 36395U 10005A   14300.25650851 -.00000036  00000-0  00000+0 0   677
2 36395  27.9933 158.0337 0001290 180.2401  47.5583  1.00274777 17416
CRYOSAT 2               
1 36508U 10013A   14299.45825640  .00000265  00000-0  64651-4 0  3843
2 36508  92.0231 328.9700 0009247  38.3626 321.8237 14.52181925241157
PICARD                  
1 36598U 10028A   14300.48806071  .00000524  00000-0  14618-3 0  7963
2 36598  98.3024 122.8824 0003028  69.1024  15.4367 14.50101019231061
SPEKTR-R                
1 37755U 11037A   14301.68469246  .00000522  00000-0  00000+0 0  1308
2 37755  53.8519 110.8458 7017083 180.8284   1.9877  0.11447502  1416
GCOM-W1 (SHIZUKU)       
1 38337U 12025A   14299.89534165  .00001076  00000-0  24856-3 0  9318
2 38337  98.2113 237.9948 0001174  63.3755 296.7554 14.57147898129941
NUSTAR                  
1 38358U 12031A   14300.04751373  .00005364  00000-0  53164-3 0  5763
2 38358   6.0270  98.1425 0011680 108.9283 251.2112 14.85137481128692
RBSP A                  
1 38752U 12046A   14298.37265804  .00000067  00000-0  14125-2 0  3573
2 38752  10.1081 279.9916 6822930 344.5975   2.0211  2.67348600 21014
RBSP B                  
1 38753U 12046B   14298.17348087 -.00000075  00000-0  10000-3 0  3789
2 38753  10.1132 283.3489 6830708 338.1057   2.9423  2.65867655 20914
NEOSSAT                 
1 39089U 13009D   14300.08088264  .00000328  00000-0  13315-3 0  5160
2 39089  98.6135 133.8085 0010019 270.9316  89.0720 14.34115376 87196
BRITE-AUSTRIA           
1 39091U 13009F   14299.46847823  .00000355  00000-0  14082-3 0  5089
2 39091  98.6133 133.7756 0009475 287.1502  72.8646 14.34748565 87146
UNIBRITE                
1 39092U 13009G   14300.42862790  .00000336  00000-0  13442-3 0  5188
2 39092  98.6131 134.5880 0008366 275.7905  84.2326 14.34622159 87276
IRIS                    
1 39197U 13033A   14300.11663321  .00001861  00000-0  26901-3 0  4420
2 39197  97.9030 122.6259 0029516  54.4064 305.9890 14.77080326 71709
HISAKI (SPRINT-A)       
1 39253U 13049A   14299.25218502  .00000103  00000-0  52387-4 0  3356
2 39253  29.7190 226.9744 0137398 121.5786 239.8278 13.55097119 55265
CASSIOPE                
1 39265U 13055A   14300.05822580  .00012751  00000-0  41420-3 0  3452
2 39265  80.9923 283.0733 0756067 137.9849 293.8781 14.06304131 54994
DANDE                   
1 39267U 13055C   14300.44296046  .00011809  00000-0  38655-3 0  3469
2 39267  80.9888 283.3206 0765511 138.8995 227.2521 14.04138313 54998
STSAT-3                 
1 39422U 13066G   14300.43192182  .00003099  00000-0  34514-3 0   536
2 39422  97.7711  11.4875 0024075 177.1029 183.0332 14.87603881 50523
BRITE-PL                
1 39431U 13066R   14300.12299960  .00001080  00000-0  24399-3 0  2859
2 39431  97.7331 349.1165 0203977 219.5154 139.1018 14.46137015 49071
SWARM B                 
1 39451U 13067A   14299.80615383  .00002074  00000-0  10000-3 0  3270
2 39451  87.7595 175.8120 0004395  79.3936 280.7914 15.18151710 51363
SWARM A                 
1 39452U 13067B   14299.89461621  .00007955  00000-0  23335-3 0  3126
2 39452  87.3550 160.3272 0003854  76.9514 283.2168 15.34999010 51788
SWARM C                 
1 39453U 13067C   14299.89453549  .00008078  00000-0  23696-3 0  3382
2 39453  87.3547 161.7277 0003884  75.5316 284.6366 15.34998515 51743
BRITE-TORONTO           
1 40020U 14033L   14300.51187581  .00001146  00000-0  20808-3 0  3943
2 40020  97.9571 191.1890 0089538 145.6574 215.0475 14.65511116 18891
OCO 2                   
1 40059U 14035A   14300.44246112  .00001151  00000-0  26525-3 0  1222
2 40059  98.2107 239.7141 0000825  59.4129 300.7170 14.57165118 17059
BRITE-PL 2              
1 40119U 14049B   14299.88639244 -.00000055  00000-0  00000+0 0  1006
2 40119  98.0144  11.3624 0017283 355.6914   4.4274 14.82674101 10189
